{
  "type": "FeatureCollection",
  "features": [
    {
      "type": "Feature",
      "properties": {
        "norad_id": 38498,
        "name": "FENGYUN 1C DEB",
        "group": "fengyun-1c-debris",
        "lat": -68.15518267105118,
        "lon": 161.71864139071764,
        "alt_km": 1708.1438740117965,
        "timestamp": "2025-12-12T16:50:33.435042+00:00",
        "meta_object_name": "FENGYUN 1C DEB",
        "meta_object_id": "1999-025ESH",
        "meta_epoch": "2025-12-07T07:48:32.940000",
        "meta_mean_motion": 12.96600945,
        "meta_eccentricity": 0.05563263,
        "meta_inclination": 99.6989,
        "meta_ra_of_asc_node": 2.1784,
        "meta_arg_of_pericenter": 84.4862,
        "meta_mean_anomaly": 281.9405,
        "meta_ephemeris_type": 0,
        "meta_classification_type": "U",
        "meta_norad_cat_id": 38498,
        "meta_element_set_no": 999,
        "meta_rev_at_epoch": 53673,
        "meta_bstar": 0.0019285441,
        "meta_mean_motion_dot": 1.094e-05,
        "meta_mean_motion_ddot": 0,
        "tle_line1": "1 38498U 99025ESH 25341.32538125  .00001094  00000+0  19285-2 0  9991",
        "tle_line2": "2 38498  99.6989   2.1784 0556326  84.4862 281.9405 12.96600945536730"
      },
      "geometry": {
        "type": "Point",
        "coordinates": [
          161.71864139071764,
          -68.15518267105118
        ]
      }
    },
    {
      "type": "Feature",
      "properties": {
        "norad_id": 38510,
        "name": "FENGYUN 1C DEB",
        "group": "fengyun-1c-debris",
        "lat": 20.42806658092885,
        "lon": -7.449766057652819,
        "alt_km": 892.6949830672575,
        "timestamp": "2025-12-12T16:50:33.435054+00:00",
        "meta_object_name": "FENGYUN 1C DEB",
        "meta_object_id": "1999-025ESV",
        "meta_epoch": "2025-12-07T07:36:41.393664",
        "meta_mean_motion": 14.13304798,
        "meta_eccentricity": 0.00984571,
        "meta_inclination": 98.6019,
        "meta_ra_of_asc_node": 350.6048,
        "meta_arg_of_pericenter": 165.571,
        "meta_mean_anomaly": 194.8311,
        "meta_ephemeris_type": 0,
        "meta_classification_type": "U",
        "meta_norad_cat_id": 38510,
        "meta_element_set_no": 999,
        "meta_rev_at_epoch": 88593,
        "meta_bstar": 0.00096053844,
        "meta_mean_motion_dot": 1.845e-05,
        "meta_mean_motion_ddot": 0,
        "tle_line1": "1 38510U 99025ESV 25341.31714576  .00001845  00000+0  96054-3 0  9995",
        "tle_line2": "2 38510  98.6019 350.6048 0098457 165.5710 194.8311 14.13304798885936"
      },
      "geometry": {
        "type": "Point",
        "coordinates": [
          -7.449766057652819,
          20.42806658092885
        ]
      }
    },
    {
      "type": "Feature",
      "properties": {
        "norad_id": 38512,
        "name": "FENGYUN 1C DEB",
        "group": "fengyun-1c-debris",
        "lat": 65.48070413565732,
        "lon": -150.32579603990715,
        "alt_km": 846.7368623183656,
        "timestamp": "2025-12-12T16:50:33.435065+00:00",
        "meta_object_name": "FENGYUN 1C DEB",
        "meta_object_id": "1999-025ESX",
        "meta_epoch": "2025-12-10T03:21:08.986176",
        "meta_mean_motion": 13.7397021,
        "meta_eccentricity": 0.02264501,
        "meta_inclination": 98.3804,
        "meta_ra_of_asc_node": 226.2794,
        "meta_arg_of_pericenter": 112.1956,
        "meta_mean_anomaly": 250.339,
        "meta_ephemeris_type": 0,
        "meta_classification_type": "U",
        "meta_norad_cat_id": 38512,
        "meta_element_set_no": 999,
        "meta_rev_at_epoch": 59534,
        "meta_bstar": 0.0014232555,
        "meta_mean_motion_dot": 1.573e-05,
        "meta_mean_motion_ddot": 0,
        "tle_line1": "1 38512U 99025ESX 25344.13968734  .00001573  00000+0  14233-2 0  9993",
        "tle_line2": "2 38512  98.3804 226.2794 0226450 112.1956 250.3390 13.73970210595340"
      },
      "geometry": {
        "type": "Point",
        "coordinates": [
          -150.32579603990715,
          65.48070413565732
        ]
      }
    },
    {
      "type": "Feature",
      "properties": {
        "norad_id": 38514,
        "name": "FENGYUN 1C DEB",
        "group": "fengyun-1c-debris",
        "lat": 31.657099289089597,
        "lon": -158.7141154103548,
        "alt_km": 970.0763104019024,
        "timestamp": "2025-12-12T16:50:33.435076+00:00",
        "meta_object_name": "FENGYUN 1C DEB",
        "meta_object_id": "1999-025ESZ",
        "meta_epoch": "2025-12-10T08:11:05.246880",
        "meta_mean_motion": 14.15607976,
        "meta_eccentricity": 0.02713018,
        "meta_inclination": 98.0508,
        "meta_ra_of_asc_node": 14.1431,
        "meta_arg_of_pericenter": 21.2008,
        "meta_mean_anomaly": 340.016,
        "meta_ephemeris_type": 0,
        "meta_classification_type": "U",
        "meta_norad_cat_id": 38514,
        "meta_element_set_no": 999,
        "meta_rev_at_epoch": 87962,
        "meta_bstar": 0.0087950247,
        "meta_mean_motion_dot": 0.00024655,
        "meta_mean_motion_ddot": 0,
        "tle_line1": "1 38514U 99025ESZ 25344.34103295  .00024655  00000+0  87950-2 0  9993",
        "tle_line2": "2 38514  98.0508  14.1431 0271301  21.2008 340.0160 14.15607976879626"
      },
      "geometry": {
        "type": "Point",
        "coordinates": [
          -158.7141154103548,
          31.657099289089597
        ]
      }
    },
    {
      "type": "Feature",
      "properties": {
        "norad_id": 38516,
        "name": "FENGYUN 1C DEB",
        "group": "fengyun-1c-debris",
        "lat": 62.61959498576553,
        "lon": 167.28064393532486,
        "alt_km": 693.3493250755309,
        "timestamp": "2025-12-12T16:50:33.435088+00:00",
        "meta_object_name": "FENGYUN 1C DEB",
        "meta_object_id": "1999-025ETB",
        "meta_epoch": "2025-12-11T05:08:28.629600",
        "meta_mean_motion": 14.34046614,
        "meta_eccentricity": 0.01114605,
        "meta_inclination": 98.4424,
        "meta_ra_of_asc_node": 329.1639,
        "meta_arg_of_pericenter": 129.7908,
        "meta_mean_anomaly": 231.3156,
        "meta_ephemeris_type": 0,
        "meta_classification_type": "U",
        "meta_norad_cat_id": 38516,
        "meta_element_set_no": 999,
        "meta_rev_at_epoch": 84851,
        "meta_bstar": 0.00015782354,
        "meta_mean_motion_dot": 4.29e-06,
        "meta_mean_motion_ddot": 0,
        "tle_line1": "1 38516U 99025ETB 25345.21422025  .00000429  00000+0  15782-3 0  9995",
        "tle_line2": "2 38516  98.4424 329.1639 0111460 129.7908 231.3156 14.34046614848518"
      },
      "geometry": {
        "type": "Point",
        "coordinates": [
          167.28064393532486,
          62.61959498576553
        ]
      }
    },
    {
      "type": "Feature",
      "properties": {
        "norad_id": 38717,
        "name": "FENGYUN 1C DEB",
        "group": "fengyun-1c-debris",
        "lat": -23.41546917602022,
        "lon": 5.920933359443216,
        "alt_km": 791.830148716037,
        "timestamp": "2025-12-12T16:50:33.435100+00:00",
        "meta_object_name": "FENGYUN 1C DEB",
        "meta_object_id": "1999-025ETJ",
        "meta_epoch": "2025-12-10T20:07:50.219616",
        "meta_mean_motion": 14.19912145,
        "meta_eccentricity": 0.00569776,
        "meta_inclination": 99.1597,
        "meta_ra_of_asc_node": 359.9872,
        "meta_arg_of_pericenter": 359.2974,
        "meta_mean_anomaly": 179.4293,
        "meta_ephemeris_type": 0,
        "meta_classification_type": "U",
        "meta_norad_cat_id": 38717,
        "meta_element_set_no": 999,
        "meta_rev_at_epoch": 58399,
        "meta_bstar": 0.0026391572,
        "meta_mean_motion_dot": 5.652e-05,
        "meta_mean_motion_ddot": 0,
        "tle_line1": "1 38717U 99025ETJ 25344.83877569  .00005652  00000+0  26392-2 0  9993",
        "tle_line2": "2 38717  99.1597 359.9872 0056977 359.2974 179.4293 14.19912145583990"
      },
      "geometry": {
        "type": "Point",
        "coordinates": [
          5.920933359443216,
          -23.41546917602022
        ]
      }
    },
    {
      "type": "Feature",
      "properties": {
        "norad_id": 38722,
        "name": "FENGYUN 1C DEB",
        "group": "fengyun-1c-debris",
        "lat": 1.2943209443225034,
        "lon": 84.80110083795185,
        "alt_km": 706.0466254568883,
        "timestamp": "2025-12-12T16:50:33.435112+00:00",
        "meta_object_name": "FENGYUN 1C DEB",
        "meta_object_id": "1999-025ETP",
        "meta_epoch": "2025-12-11T12:50:39.493248",
        "meta_mean_motion": 14.58349213,
        "meta_eccentricity": 0.01472173,
        "meta_inclination": 99.3522,
        "meta_ra_of_asc_node": 83.7029,
        "meta_arg_of_pericenter": 98.5109,
        "meta_mean_anomaly": 263.2801,
        "meta_ephemeris_type": 0,
        "meta_classification_type": "U",
        "meta_norad_cat_id": 38722,
        "meta_element_set_no": 999,
        "meta_rev_at_epoch": 70446,
        "meta_bstar": 0.0050298284,
        "meta_mean_motion_dot": 0.0002709,
        "meta_mean_motion_ddot": 0,
        "tle_line1": "1 38722U 99025ETP 25345.53517932  .00027090  00000+0  50298-2 0  9994",
        "tle_line2": "2 38722  99.3522  83.7029 0147217  98.5109 263.2801 14.58349213704460"
      },
      "geometry": {
        "type": "Point",
        "coordinates": [
          84.80110083795185,
          1.2943209443225034
        ]
      }
    }
  ]
}